[{"OBJECT_NAME":"STARLINK-2487","OBJECT_ID":"2021-027BE","EPOCH":"2026-03-10T00:00:02.999808","MEAN_MOTION":15.1061942,"ECCENTRICITY":0.00021427,"INCLINATION":53.0713,"RA_OF_ASC_NODE":150.193,"ARG_OF_PERICENTER":82.213,"MEAN_ANOMALY":69.5138,"EPHEMERIS_TYPE":0,"CLASSIFICATION_TYPE":"U","NORAD_CAT_ID":48144,"ELEMENT_SET_NO":999,"REV_AT_EPOCH":574,"BSTAR":0.083657273,"MEAN_MOTION_DOT":0.01515342,"MEAN_MOTION_DDOT":0},{"OBJECT_NAME":"KUIPER-00248","OBJECT_ID":"2025-301W","EPOCH":"2026-03-09T06:00:06.073920","MEAN_MOTION":15.37429186,"ECCENTRICITY":0.00111963,"INCLINATION":51.8685,"RA_OF_ASC_NODE":67.7485,"ARG_OF_PERICENTER":42.2591,"MEAN_ANOMALY":317.9256,"EPHEMERIS_TYPE":0,"CLASSIFICATION_TYPE":"U","NORAD_CAT_ID":67153,"ELEMENT_SET_NO":999,"REV_AT_EPOCH":1383,"BSTAR":0.0012899652,"MEAN_MOTION_DOT":0.00048086,"MEAN_MOTION_DDOT":0}]
